$$SOE
2459580.500000000, A.D. 2022-Jan-01 00:00:00.0000, 4.389898800822384E+09, 4.169388894437672E+09, -2.067855853701389E+09,
2459587.500000000, A.D. 2022-Jan-08 00:00:00.0000, 4.388253965569337E+09, 4.171777360798478E+09, -2.067791019755407E+09,
2459594.500000000, A.D. 2022-Jan-15 00:00:00.0000, 4.386608235717268E+09, 4.174165068268965E+09, -2.067725800380731E+09,
2459601.500000000, A.D. 2022-Jan-22 00:00:00.0000, 4.384961615641257E+09, 4.176552015055863E+09, -2.067660196037387E+09,
2459608.500000000, A.D. 2022-Jan-29 00:00:00.0000, 4.383314110295464E+09, 4.178938201842579E+09, -2.067594207078329E+09,
2459615.500000000, A.D. 2022-Feb-05 00:00:00.0000, 4.381665723006040E+09, 4.181323631117527E+09, -2.067527833601673E+09,
2459622.500000000, A.D. 2022-Feb-12 00:00:00.0000, 4.380016455437380E+09, 4.183708305434211E+09, -2.067461075587983E+09,
2459629.500000000, A.D. 2022-Feb-19 00:00:00.0000, 4.378366308406912E+09, 4.186092226972070E+09, -2.067393933007589E+09,
2459636.500000000, A.D. 2022-Feb-26 00:00:00.0000, 4.376715282237056E+09, 4.188475397675067E+09, -2.067326405836949E+09,
2459643.500000000, A.D. 2022-Mar-05 00:00:00.0000, 4.375063376803639E+09, 4.190857819351170E+09, -2.067258494049302E+09,
2459650.500000000, A.D. 2022-Mar-12 00:00:00.0000, 4.373410591502587E+09, 4.193239493667081E+09, -2.067190197605634E+09,
2459657.500000000, A.D. 2022-Mar-19 00:00:00.0000, 4.371756925205921E+09, 4.195620422066406E+09, -2.067121516450474E+09,
2459664.500000000, A.D. 2022-Mar-26 00:00:00.0000, 4.370102376229512E+09, 4.198000605605495E+09, -2.067052450515358E+09,
2459671.500000000, A.D. 2022-Apr-02 00:00:00.0000, 4.368446942380348E+09, 4.200380044651358E+09, -2.066982999741001E+09,
2459678.500000000, A.D. 2022-Apr-09 00:00:00.0000, 4.366790621355404E+09, 4.202758738446693E+09, -2.066913164142968E+09,
2459685.500000000, A.D. 2022-Apr-16 00:00:00.0000, 4.365133411849212E+09, 4.205136685196348E+09, -2.066842943900326E+09,
2459692.500000000, A.D. 2022-Apr-23 00:00:00.0000, 4.363475314101301E+09, 4.207513883759632E+09, -2.066772339262425E+09,
2459699.500000000, A.D. 2022-Apr-30 00:00:00.0000, 4.361816328013317E+09, 4.209890334703422E+09, -2.066701350285829E+09,
2459706.500000000, A.D. 2022-May-07 00:00:00.0000, 4.360156451898582E+09, 4.212266038742570E+09, -2.066629976843688E+09,
2459713.500000000, A.D. 2022-May-14 00:00:00.0000, 4.358495683253434E+09, 4.214640995605928E+09, -2.066558218786730E+09,
2459720.500000000, A.D. 2022-May-21 00:00:00.0000, 4.356834019519331E+09, 4.217015204086763E+09, -2.066486076007578E+09,
2459727.500000000, A.D. 2022-May-28 00:00:00.0000, 4.355171458356864E+09, 4.219388662318875E+09, -2.066413548442826E+09,
2459734.500000000, A.D. 2022-Jun-04 00:00:00.0000, 4.353507997708832E+09, 4.221761367965693E+09, -2.066340636063808E+09,
2459741.500000000, A.D. 2022-Jun-11 00:00:00.0000, 4.351843635797080E+09, 4.224133318324670E+09, -2.066267338869137E+09,
2459748.500000000, A.D. 2022-Jun-18 00:00:00.0000, 4.350178371091814E+09, 4.226504510360476E+09, -2.066193656881390E+09,
2459755.500000000, A.D. 2022-Jun-25 00:00:00.0000, 4.348512202282885E+09, 4.228874940634034E+09, -2.066119590153292E+09,
2459762.500000000, A.D. 2022-Jul-02 00:00:00.0000, 4.346845128387110E+09, 4.231244605061916E+09, -2.066045138800948E+09,
2459769.500000000, A.D. 2022-Jul-09 00:00:00.0000, 4.345177149381938E+09, 4.233613498683307E+09, -2.065970303085346E+09,
2459776.500000000, A.D. 2022-Jul-16 00:00:00.0000, 4.343508267310310E+09, 4.235981616517490E+09, -2.065895083448410E+09,
2459783.500000000, A.D. 2022-Jul-23 00:00:00.0000, 4.341838485658339E+09, 4.238348955589690E+09, -2.065819480295441E+09,
2459790.500000000, A.D. 2022-Jul-30 00:00:00.0000, 4.340167807089883E+09, 4.240715514771371E+09, -2.065743493805502E+09,
2459797.500000000, A.D. 2022-Aug-06 00:00:00.0000, 4.338496233136782E+09, 4.243081293083146E+09, -2.065667124046688E+09,
2459804.500000000, A.D. 2022-Aug-13 00:00:00.0000, 4.336823765021578E+09, 4.245446289214750E+09, -2.065590371095396E+09,
2459811.500000000, A.D. 2022-Aug-20 00:00:00.0000, 4.335150404043359E+09, 4.247810501758681E+09, -2.065513235056565E+09,
2459818.500000000, A.D. 2022-Aug-27 00:00:00.0000, 4.333476151594872E+09, 4.250173929430931E+09, -2.065435716050275E+09,
2459825.500000000, A.D. 2022-Sep-03 00:00:00.0000, 4.331801009058832E+09, 4.252536571168273E+09, -2.065357814196289E+09,
2459832.500000000, A.D. 2022-Sep-10 00:00:00.0000, 4.330124977673525E+09, 4.254898426126031E+09, -2.065279529602733E+09,
2459839.500000000, A.D. 2022-Sep-17 00:00:00.0000, 4.328448058397111E+09, 4.257259493574564E+09, -2.065200862361692E+09,
2459846.500000000, A.D. 2022-Sep-24 00:00:00.0000, 4.326770251831081E+09, 4.259619772643622E+09, -2.065121812561452E+09,
2459853.500000000, A.D. 2022-Oct-01 00:00:00.0000, 4.325091558442817E+09, 4.261979261892252E+09, -2.065042380339345E+09,
2459860.500000000, A.D. 2022-Oct-08 00:00:00.0000, 4.323411979494590E+09, 4.264337959226341E+09, -2.064962565970056E+09,
2459867.500000000, A.D. 2022-Oct-15 00:00:00.0000, 4.321731517747144E+09, 4.266695863362976E+09, -2.064882369806173E+09,
2459874.500000000, A.D. 2022-Oct-22 00:00:00.0000, 4.320050175756272E+09, 4.269052975157727E+09, -2.064801792008747E+09,
2459881.500000000, A.D. 2022-Oct-29 00:00:00.0000, 4.318367954260218E+09, 4.271409296201373E+09, -2.064720832509194E+09,
2459888.500000000, A.D. 2022-Nov-05 00:00:00.0000, 4.316684852757202E+09, 4.273764827427206E+09, -2.064639491171374E+09,
2459895.500000000, A.D. 2022-Nov-12 00:00:00.0000, 4.315000870308265E+09, 4.276119568996159E+09, -2.064557767870299E+09,
2459902.500000000, A.D. 2022-Nov-19 00:00:00.0000, 4.313316005846021E+09, 4.278473520505607E+09, -2.064475662499648E+09,
2459909.500000000, A.D. 2022-Nov-26 00:00:00.0000, 4.311630258251590E+09, 4.280826681124549E+09, -2.064393174964772E+09,
2459916.500000000, A.D. 2022-Dec-03 00:00:00.0000, 4.309943626365686E+09, 4.283179049643628E+09, -2.064310305177446E+09,
2459923.500000000, A.D. 2022-Dec-10 00:00:00.0000, 4.308256108979431E+09, 4.285530624458665E+09, -2.064227053055066E+09,
2459930.500000000, A.D. 2022-Dec-17 00:00:00.0000, 4.306567704829579E+09, 4.287881403462739E+09, -2.064143418528626E+09,
2459937.500000000, A.D. 2022-Dec-24 00:00:00.0000, 4.304878412707574E+09, 4.290231383780966E+09, -2.064059401574852E+09,
2459944.500000000, A.D. 2022-Dec-31 00:00:00.0000, 4.303188232040038E+09, 4.292580561455490E+09, -2.063975002296478E+09,
2459951.500000000, A.D. 2023-Jan-07 00:00:00.0000, 4.301497164063437E+09, 4.294928932043082E+09, -2.063890220983220E+09,
2459958.500000000, A.D. 2023-Jan-14 00:00:00.0000, 4.299805211625893E+09, 4.297276492622140E+09, -2.063805057932347E+09,
2459965.500000000, A.D. 2023-Jan-21 00:00:00.0000, 4.298112376971390E+09, 4.299623242036476E+09, -2.063719513228921E+09,
2459972.500000000, A.D. 2023-Jan-28 00:00:00.0000, 4.296418661174377E+09, 4.301969179180396E+09, -2.063633586838043E+09,
2459979.500000000, A.D. 2023-Feb-04 00:00:00.0000, 4.294724065016231E+09, 4.304314302352788E+09, -2.063547278742466E+09,
2459986.500000000, A.D. 2023-Feb-11 00:00:00.0000, 4.293028589508350E+09, 4.306658609486721E+09, -2.063460588976637E+09,
2459993.500000000, A.D. 2023-Feb-18 00:00:00.0000, 4.291332235998703E+09, 4.309002098431498E+09, -2.063373517618513E+09,
2460000.500000000, A.D. 2023-Feb-25 00:00:00.0000, 4.289635006124730E+09, 4.311344767125544E+09, -2.063286064776350E+09,
2460007.500000000, A.D. 2023-Mar-04 00:00:00.0000, 4.287936901714967E+09, 4.313686613679163E+09, -2.063198230578127E+09,
2460014.500000000, A.D. 2023-Mar-11 00:00:00.0000, 4.286237924668180E+09, 4.316027636367935E+09, -2.063110015166022E+09,
2460021.500000000, A.D. 2023-Mar-18 00:00:00.0000, 4.284538076857288E+09, 4.318367833487466E+09, -2.063021418704074E+09,
2460028.500000000, A.D. 2023-Mar-25 00:00:00.0000, 4.282837360261570E+09, 4.320707203022579E+09, -2.062932441421344E+09,
2460035.500000000, A.D. 2023-Apr-01 00:00:00.0000, 4.281135777751875E+09, 4.323045742524559E+09, -2.062843083697109E+09,
2460042.500000000, A.D. 2023-Apr-08 00:00:00.0000, 4.279433333913587E+09, 4.325383450421604E+09, -2.062753346031377E+09,
2460049.500000000, A.D. 2023-Apr-15 00:00:00.0000, 4.277730033570467E+09, 4.327720327656506E+09, -2.062663228776543E+09,
2460056.500000000, A.D. 2023-Apr-22 00:00:00.0000, 4.276025879818642E+09, 4.330056376599730E+09, -2.062572732045464E+09,
2460063.500000000, A.D. 2023-Apr-29 00:00:00.0000, 4.274320874305846E+09, 4.332391599490832E+09, -2.062481855862642E+09,
2460070.500000000, A.D. 2023-May-06 00:00:00.0000, 4.272615017995743E+09, 4.334725998189451E+09, -2.062390600251561E+09,
2460077.500000000, A.D. 2023-May-13 00:00:00.0000, 4.270908311440578E+09, 4.337059574342481E+09, -2.062298965241680E+09,
2460084.500000000, A.D. 2023-May-20 00:00:00.0000, 4.269200754796336E+09, 4.339392329476335E+09, -2.062206950856885E+09,
2460091.500000000, A.D. 2023-May-27 00:00:00.0000, 4.267492347773908E+09, 4.341724264985078E+09, -2.062114557105788E+09,
2460098.500000000, A.D. 2023-Jun-03 00:00:00.0000, 4.265783089583873E+09, 4.344055382040341E+09, -2.062021783977278E+09,
2460105.500000000, A.D. 2023-Jun-10 00:00:00.0000, 4.264072978898667E+09, 4.346385681409443E+09, -2.061928631444945E+09,
2460112.500000000, A.D. 2023-Jun-17 00:00:00.0000, 4.262362013921200E+09, 4.348715163121596E+09, -2.061835099493702E+09,
2460119.500000000, A.D. 2023-Jun-24 00:00:00.0000, 4.260650192879883E+09, 4.351043826037888E+09, -2.061741188193679E+09,
2460126.500000000, A.D. 2023-Jul-01 00:00:00.0000, 4.258937515203232E+09, 4.353371668153219E+09, -2.061646897777150E+09,
2460133.500000000, A.D. 2023-Jul-08 00:00:00.0000, 4.257223981700049E+09, 4.355698688452278E+09, -2.061552228497930E+09,
2460140.500000000, A.D. 2023-Jul-15 00:00:00.0000, 4.255509592468433E+09, 4.358024887489804E+09, -2.061457180387525E+09,
2460147.500000000, A.D. 2023-Jul-22 00:00:00.0000, 4.253794346054991E+09, 4.360350265660836E+09, -2.061361753315647E+09,
$$EOE